start=new Date('2023-06-30T00:00:00.000Z').valueOf();
sats=[{"COUNTRY_CODE":"US","ELEMENT_SET_NO":"999","OBJECT_ID":"2022-029R","LAUNCH_DATE":"2022-03-19","EPHEMERIS_TYPE":"0","RA_OF_ASC_NODE":"177.8765","EPOCH":"2023-06-29T09:01:42.091968","TLE_LINE1":"1 52103U 22029R   23180.37618162  .00000622  00000-0  57165-4 0  9992","CENTER_NAME":"EARTH","REF_FRAME":"TEME","MEAN_ELEMENT_THEORY":"SGP4","RCS_SIZE":"LARGE","SITE":"AFETR","TLE_LINE2":"2 52103  53.2150 177.8765 0000989  87.2695 272.8410 15.08838197 72185","OBJECT_NAME":"STARLINK-3705","MEAN_ANOMALY":"272.8410","PERIAPSIS":"539.067","MEAN_MOTION":"15.08838197","DECAY_DATE":null,"FILE":"3945646","MEAN_MOTION_DDOT":"0.0000000000000","TIME_SYSTEM":"UTC","OBJECT_TYPE":"PAYLOAD","ARG_OF_PERICENTER":"87.2695","PERIOD":"95.438","BSTAR":"0.00005716500000","GP_ID":"234622291","CLASSIFICATION_TYPE":"U","NORAD_CAT_ID":"52103","REV_AT_EPOCH":"7218","APOAPSIS":"540.435","SEMIMAJOR_AXIS":"6917.886","ECCENTRICITY":"0.00009890","INCLINATION":"53.2150","MEAN_MOTION_DOT":"0.00000622"},{"MEAN_MOTION_DDOT":"0.0000000000000","FILE":"3945762","PERIOD":"95.438","OBJECT_TYPE":"PAYLOAD","TIME_SYSTEM":"UTC","ARG_OF_PERICENTER":"80.0650","CLASSIFICATION_TYPE":"U","BSTAR":"0.00006063000000","GP_ID":"234625557","SEMIMAJOR_AXIS":"6917.889","MEAN_MOTION_DOT":"0.00000677","INCLINATION":"53.2158","ECCENTRICITY":"0.00010420","REV_AT_EPOCH":"7219","NORAD_CAT_ID":"52105","APOAPSIS":"540.475","OBJECT_ID":"2022-029T","ELEMENT_SET_NO":"999","LAUNCH_DATE":"2022-03-19","EPHEMERIS_TYPE":"0","RA_OF_ASC_NODE":"177.6089","COUNTRY_CODE":"US","CENTER_NAME":"EARTH","REF_FRAME":"TEME","TLE_LINE1":"1 52105U 22029T   23180.43601936  .00000677  00000-0  60630-4 0  9993","EPOCH":"2023-06-29T10:27:52.072704","PERIAPSIS":"539.034","MEAN_ANOMALY":"280.0460","OBJECT_NAME":"STARLINK-3706","RCS_SIZE":"LARGE","MEAN_ELEMENT_THEORY":"SGP4","SITE":"AFETR","TLE_LINE2":"2 52105  53.2158 177.6089 0001042  80.0650 280.0460 15.08837069 72199","DECAY_DATE":null,"MEAN_MOTION":"15.08837069"},{"GP_ID":"234609562","BSTAR":"0.00004449000000","CLASSIFICATION_TYPE":"U","APOAPSIS":"540.530","NORAD_CAT_ID":"52106","REV_AT_EPOCH":"7195","ECCENTRICITY":"0.00011190","MEAN_MOTION_DOT":"0.00000420","INCLINATION":"53.2157","SEMIMAJOR_AXIS":"6917.891","FILE":"3945114","MEAN_MOTION_DDOT":"0.0000000000000","ARG_OF_PERICENTER":"85.8751","OBJECT_TYPE":"PAYLOAD","TIME_SYSTEM":"UTC","PERIOD":"95.438","TLE_LINE2":"2 52106  53.2157 190.7860 0001119  85.8751 274.2369 15.08836452 71953","SITE":"AFETR","MEAN_ELEMENT_THEORY":"SGP4","RCS_SIZE":"LARGE","OBJECT_NAME":"STARLINK-3670","PERIAPSIS":"538.982","MEAN_ANOMALY":"274.2369","MEAN_MOTION":"15.08836452","DECAY_DATE":null,"COUNTRY_CODE":"US","LAUNCH_DATE":"2022-03-19","EPHEMERIS_TYPE":"0","RA_OF_ASC_NODE":"190.7860","ELEMENT_SET_NO":"999","OBJECT_ID":"2022-029U","EPOCH":"2023-06-28T17:27:43.036416","TLE_LINE1":"1 52106U 22029U   23179.72758144  .00000420  00000-0  44490-4 0  9990","REF_FRAME":"TEME","CENTER_NAME":"EARTH"},{"ARG_OF_PERICENTER":"88.2808","OBJECT_TYPE":"PAYLOAD","TIME_SYSTEM":"UTC","PERIOD":"95.438","MEAN_MOTION_DDOT":"0.0000000000000","FILE":"3945114","APOAPSIS":"540.466","REV_AT_EPOCH":"7208","NORAD_CAT_ID":"52107","MEAN_MOTION_DOT":"0.00000227","INCLINATION":"53.2154","ECCENTRICITY":"0.00010250","SEMIMAJOR_AXIS":"6917.892","GP_ID":"234609224","BSTAR":"0.00003234800000","CLASSIFICATION_TYPE":"U","TLE_LINE1":"1 52107U 22029V   23179.70274054  .00000227  00000-0  32348-4 0  9996","EPOCH":"2023-06-28T16:51:56.782656","REF_FRAME":"TEME","CENTER_NAME":"EARTH","COUNTRY_CODE":"US","RA_OF_ASC_NODE":"180.8981","LAUNCH_DATE":"2022-03-19","EPHEMERIS_TYPE":"0","OBJECT_ID":"2022-029V","ELEMENT_SET_NO":"999","DECAY_DATE":null,"MEAN_MOTION":"15.08836165","SITE":"AFETR","TLE_LINE2":"2 52107  53.2154 180.8981 0001025  88.2808 271.8302 15.08836165 72087","RCS_SIZE":"LARGE","MEAN_ELEMENT_THEORY":"SGP4","PERIAPSIS":"539.048","MEAN_ANOMALY":"271.8302","OBJECT_NAME":"STARLINK-3658"},{"MEAN_ELEMENT_THEORY":"SGP4","RCS_SIZE":"LARGE","SITE":"AFETR","TLE_LINE2":"2 52108  53.2159 177.5943 0001185  89.9747 270.1381 15.08838154 72192","OBJECT_NAME":"STARLINK-3698","MEAN_ANOMALY":"270.1381","PERIAPSIS":"538.931","MEAN_MOTION":"15.08838154","DECAY_DATE":null,"COUNTRY_CODE":"US","ELEMENT_SET_NO":"999","OBJECT_ID":"2022-029W","LAUNCH_DATE":"2022-03-19","RA_OF_ASC_NODE":"177.5943","EPHEMERIS_TYPE":"0","EPOCH":"2023-06-29T10:31:47.314848","TLE_LINE1":"1 52108U 22029W   23180.43874207  .00000529  00000-0  51339-4 0  9991","CENTER_NAME":"EARTH","REF_FRAME":"TEME","BSTAR":"0.00005133900000","GP_ID":"234625126","CLASSIFICATION_TYPE":"U","NORAD_CAT_ID":"52108","REV_AT_EPOCH":"7219","APOAPSIS":"540.571","SEMIMAJOR_AXIS":"6917.886","ECCENTRICITY":"0.00011850","INCLINATION":"53.2159","MEAN_MOTION_DOT":"0.00000529","FILE":"3945758","MEAN_MOTION_DDOT":"0.0000000000000","OBJECT_TYPE":"PAYLOAD","TIME_SYSTEM":"UTC","ARG_OF_PERICENTER":"89.9747","PERIOD":"95.438"},{"MEAN_MOTION":"15.08837130","DECAY_DATE":null,"OBJECT_NAME":"STARLINK-3687","MEAN_ANOMALY":"274.4661","PERIAPSIS":"539.028","SITE":"AFETR","TLE_LINE2":"2 52110  53.2156 180.8842 0001049  85.6451 274.4661 15.08837130 72080","MEAN_ELEMENT_THEORY":"SGP4","RCS_SIZE":"LARGE","REF_FRAME":"TEME","CENTER_NAME":"EARTH","EPOCH":"2023-06-28T16:57:14.751936","TLE_LINE1":"1 52110U 22029Y   23179.70642074  .00000206  00000-0  31029-4 0  9993","EPHEMERIS_TYPE":"0","LAUNCH_DATE":"2022-03-19","RA_OF_ASC_NODE":"180.8842","OBJECT_ID":"2022-029Y","ELEMENT_SET_NO":"999","COUNTRY_CODE":"US","ECCENTRICITY":"0.00010490","INCLINATION":"53.2156","MEAN_MOTION_DOT":"0.00000206","SEMIMAJOR_AXIS":"6917.889","APOAPSIS":"540.480","NORAD_CAT_ID":"52110","REV_AT_EPOCH":"7208","CLASSIFICATION_TYPE":"U","GP_ID":"234609242","BSTAR":"0.00003102900000","PERIOD":"95.438","ARG_OF_PERICENTER":"85.6451","TIME_SYSTEM":"UTC","OBJECT_TYPE":"PAYLOAD","FILE":"3945115","MEAN_MOTION_DDOT":"0.0000000000000"},{"PERIOD":"95.438","ARG_OF_PERICENTER":"86.1671","OBJECT_TYPE":"PAYLOAD","TIME_SYSTEM":"UTC","FILE":"3945636","MEAN_MOTION_DDOT":"0.0000000000000","ECCENTRICITY":"0.00012610","MEAN_MOTION_DOT":"0.00000707","INCLINATION":"53.2156","SEMIMAJOR_AXIS":"6917.880","APOAPSIS":"540.617","NORAD_CAT_ID":"52111","REV_AT_EPOCH":"7217","CLASSIFICATION_TYPE":"U","GP_ID":"234622220","BSTAR":"0.00006247400000","REF_FRAME":"TEME","CENTER_NAME":"EARTH","EPOCH":"2023-06-29T06:54:31.189536","TLE_LINE1":"1 52111U 22029Z   23180.28786099  .00000707  00000-0  62474-4 0  9999","LAUNCH_DATE":"2022-03-19","EPHEMERIS_TYPE":"0","RA_OF_ASC_NODE":"178.2682","OBJECT_ID":"2022-029Z","ELEMENT_SET_NO":"999","COUNTRY_CODE":"US","MEAN_MOTION":"15.08840210","DECAY_DATE":null,"OBJECT_NAME":"STARLINK-3708","PERIAPSIS":"538.872","MEAN_ANOMALY":"273.9466","SITE":"AFETR","TLE_LINE2":"2 52111  53.2156 178.2682 0001261  86.1671 273.9466 15.08840210 72170","MEAN_ELEMENT_THEORY":"SGP4","RCS_SIZE":"LARGE"},{"DECAY_DATE":null,"MEAN_MOTION":"15.08835065","MEAN_ANOMALY":"273.7547","PERIAPSIS":"538.959","OBJECT_NAME":"STARLINK-3734","TLE_LINE2":"2 52112  53.2159 177.6439 0001159  86.3577 273.7547 15.08835065 72192","SITE":"AFETR","RCS_SIZE":"LARGE","MEAN_ELEMENT_THEORY":"SGP4","REF_FRAME":"TEME","CENTER_NAME":"EARTH","TLE_LINE1":"1 52112U 22029AA  23180.42770324  .00000448  00000-0  46261-4 0  9998","EPOCH":"2023-06-29T10:15:53.559936","LAUNCH_DATE":"2022-03-19","EPHEMERIS_TYPE":"0","RA_OF_ASC_NODE":"177.6439","ELEMENT_SET_NO":"999","OBJECT_ID":"2022-029AA","COUNTRY_CODE":"US","INCLINATION":"53.2159","MEAN_MOTION_DOT":"0.00000448","ECCENTRICITY":"0.00011590","SEMIMAJOR_AXIS":"6917.895","APOAPSIS":"540.562","REV_AT_EPOCH":"7219","NORAD_CAT_ID":"52112","CLASSIFICATION_TYPE":"U","GP_ID":"234622030","BSTAR":"0.00004626100000","PERIOD":"95.438","ARG_OF_PERICENTER":"86.3577","OBJECT_TYPE":"PAYLOAD","TIME_SYSTEM":"UTC","MEAN_MOTION_DDOT":"0.0000000000000","FILE":"3945636"},{"DECAY_DATE":null,"MEAN_MOTION":"15.08838803","PERIAPSIS":"538.859","MEAN_ANOMALY":"273.4601","OBJECT_NAME":"STARLINK-3736","RCS_SIZE":"LARGE","MEAN_ELEMENT_THEORY":"SGP4","SITE":"AFETR","TLE_LINE2":"2 52113  53.2155 178.0045 0001286  86.6538 273.4601 15.08838803 72188","CENTER_NAME":"EARTH","REF_FRAME":"TEME","TLE_LINE1":"1 52113U 22029AB  23180.34674112  .00000129  00000-0  26165-4 0  9995","EPOCH":"2023-06-29T08:19:18.432768","OBJECT_ID":"2022-029AB","ELEMENT_SET_NO":"999","LAUNCH_DATE":"2022-03-19","EPHEMERIS_TYPE":"0","RA_OF_ASC_NODE":"178.0045","COUNTRY_CODE":"US","SEMIMAJOR_AXIS":"6917.884","MEAN_MOTION_DOT":"0.00000129","INCLINATION":"53.2155","ECCENTRICITY":"0.00012860","REV_AT_EPOCH":"7218","NORAD_CAT_ID":"52113","APOAPSIS":"540.639","CLASSIFICATION_TYPE":"U","BSTAR":"0.00002616500000","GP_ID":"234622037","PERIOD":"95.438","OBJECT_TYPE":"PAYLOAD","TIME_SYSTEM":"UTC","ARG_OF_PERICENTER":"86.6538","MEAN_MOTION_DDOT":"0.0000000000000","FILE":"3945636"},{"REV_AT_EPOCH":"7219","NORAD_CAT_ID":"52114","APOAPSIS":"540.657","SEMIMAJOR_AXIS":"6917.870","MEAN_MOTION_DOT":"-0.00000845","INCLINATION":"53.2160","ECCENTRICITY":"0.00013330","BSTAR":"-0.00003501900000","GP_ID":"234622216","CLASSIFICATION_TYPE":"U","OBJECT_TYPE":"PAYLOAD","TIME_SYSTEM":"UTC","ARG_OF_PERICENTER":"63.1891","PERIOD":"95.437","MEAN_MOTION_DDOT":"0.0000000000000","FILE":"3945636","DECAY_DATE":null,"MEAN_MOTION":"15.08843430","RCS_SIZE":"LARGE","MEAN_ELEMENT_THEORY":"SGP4","TLE_LINE2":"2 52114  53.2160 177.9553 0001333  63.1891 296.9238 15.08843430 72191","SITE":"AFETR","MEAN_ANOMALY":"296.9238","PERIAPSIS":"538.813","OBJECT_NAME":"STARLINK-3737","TLE_LINE1":"1 52114U 22029AC  23180.35778282 -.00000845  00000-0 -35019-4 0  9995","EPOCH":"2023-06-29T08:35:12.435648","CENTER_NAME":"EARTH","REF_FRAME":"TEME","COUNTRY_CODE":"US","OBJECT_ID":"2022-029AC","ELEMENT_SET_NO":"999","LAUNCH_DATE":"2022-03-19","EPHEMERIS_TYPE":"0","RA_OF_ASC_NODE":"177.9553"}];
